satname,norad_id,inclination_deg,eccentricity,mean_motion_rev_per_day,perigee_km,apogee_km,l1,l2
STARLINK-1297,45395,53.0503,0.000182,15.49416011,417.19635001503684,419.67030161363255,1 45395U 20019AM  26044.53525484  .00103781  00000+0  18422-2 0  9998,2 45395  53.0503 246.8922 0001820 152.3891 207.7214 15.49416011325664
STARLINK-1307,45397,53.0546,0.0001119,15.48567404,420.15527551902323,421.6769036004671,1 45397U 20019AP  26043.97565273  .00030712  00000+0  57269-3 0  9993,2 45397  53.0546 249.1903 0001119  93.2753 266.8382 15.48567404326226
STARLINK-1255,45399,53.0422,0.0005422,15.47403516,420.63666403444677,428.01325378268666,1 45399U 20019AR  26044.50177464  .00133535  00000+0  25297-2 0  9998,2 45399  53.0422 218.7442 0005422 158.1528 201.9711 15.47403516326681
STARLINK-1260,45404,53.1612,0.0001553,15.30146275,474.31113678959446,476.43983776814366,1 45404U 20019AW  26044.53126313  .00008485  00000+0  29878-3 0  9990,2 45404  53.1612 241.4527 0001553  89.5034 270.6144 15.30146275326273
STARLINK-1263,45405,53.1579,0.0001317,15.30190337,474.3413312800203,476.1465118147562,1 45405U 20019AX  26043.93184570 -.00001300  00000+0 -31786-4 0  9996,2 45405  53.1579 244.2691 0001317  90.2145 269.9006 15.30190337326185
STARLINK-1265,45406,53.1599,0.0001392,15.30163016,474.37149722121194,476.2795011809894,1 45406U 20019AY  26044.00002314  .00060915  00000+0  20544-2 0  9994,2 45406  53.1599 244.0272 0001392  73.8124 220.7422 15.30163016  5745
STARLINK-1278,45408,53.0485,0.000553,15.50777509,410.6984284539285,418.21103490916903,1 45408U 20019BA  26043.94437252  .00059301  00000+0  10118-2 0  9994,2 45408  53.0485 249.7240 0005530 116.5390 243.6186 15.50777509326113
STARLINK-1296,45412,53.1601,0.0001739,15.30172354,474.1058043550802,476.489428914746,1 45412U 20019BE  26044.52810632  .00008343  00000+0  29376-3 0  9998,2 45412  53.1601 241.4760 0001739 122.8889 237.2279 15.30172354326279
STARLINK-1298,45413,53.0377,0.0005857,15.84116108,314.8923141225214,322.7371233658587,1 45413U 20019BF  26044.58334490  .00246462  00000+0  10448-2 0  9993,2 45413  53.0377 176.6318 0005857 265.8377   4.6559 15.84116108  5929
STARLINK-1309,45414,53.0691,3.81e-05,15.50149059,416.0316082685076,416.5493436421766,1 45414U 20019BG  26044.00002314  .00106872  00000+0  18478-2 0  9999,2 45414  53.0691 242.4490 0000381  93.7452  76.1758 15.50149059  5740
STARLINK-1316,45415,53.1588,0.0001453,15.30215131,474.17410586166807,476.1656768442954,1 45415U 20019BH  26043.85495120  .00007727  00000+0  27262-3 0  9994,2 45415  53.1588 244.6536 0001453  94.4613 265.6554 15.30215131326197
STARLINK-1318,45416,53.0332,0.000655,15.95464379,282.6550772843693,291.38643394422434,1 45416U 20019BJ  26044.58334490  .00446320  91470-4  10991-2 0  9990,2 45416  53.0332 162.5321 0006550 318.1745 270.6619 15.95464379  6047
STARLINK-1286,45417,53.0487,0.0002009,15.48979744,418.3437387256299,421.07511341962527,1 45417U 20019BK  26043.97320221  .00031699  00000+0  58229-3 0  9990,2 45417  53.0487 249.3037 0002009  85.6994 274.4243 15.48979744326397
STARLINK-1308,45419,53.0556,0.0002558,15.4282235,436.04067804288024,439.5277033240336,1 45419U 20019BM  26044.01476124  .00023747  00000+0  54130-3 0  9994,2 45419  53.0556 270.0861 0002558 130.0201 230.1029 15.42822350325852
STARLINK-1329,45531,53.0518,0.0005502,15.51162691,409.59353690328226,417.06686741253634,1 45531U 20025A   26043.80995665  .00111093  00000+0  18508-2 0  9998,2 45531  53.0518 201.3765 0005502 168.4137 191.6999 15.51162691321588
STARLINK-1338,45532,53.0508,0.0005234,15.5019115,412.6113476206265,419.7236255571879,1 45532U 20025B   26044.43032028  .00114477  00000+0  19731-2 0  9992,2 45532  53.0508 201.5432 0005234 215.5124 144.5536 15.50191150321634
STARLINK-1350,45535,53.0727,0.0001187,15.3543577,458.81480168406415,460.4380867257187,1 45535U 20025E   26044.51675302  .00004805  00000+0  14839-3 0  9990,2 45535  53.0727 146.6075 0001187  59.3759 300.7360 15.35435770322446
STARLINK-1362,45538,53.1548,0.0001165,15.29356589,476.93579085522924,478.5332089147032,1 45538U 20025H   26044.48440005  .00003435  00000+0  13130-3 0  9990,2 45538  53.1548 213.3747 0001165  90.7376 269.3758 15.29356589321475
STARLINK-1368,45540,53.1515,0.000193,15.29014898,477.43247536186755,480.07923600416234,1 45540U 20025K   26044.58334490  .00084639  00000+0  29427-2 0  9994,2 45540  53.1515 213.2698 0001930  89.5309  31.5937 15.29014898  5772
STARLINK-1371,45542,53.0514,0.0004146,15.43553601,432.80635934463953,438.45633605855346,1 45542U 20025M   26043.90751226  .00018805  00000+0  42042-3 0  9992,2 45542  53.0514 207.4377 0004146 176.1766 183.9272 15.43553601321505
STARLINK-1372,45543,53.1622,0.0001359,15.30197692,474.2905892172075,476.15333218272553,1 45543U 20025N   26044.47581512  .00002083  00000+0  82437-4 0  9999,2 45543  53.1622 213.4892 0001359  87.7872 272.3284 15.30197692320565
STARLINK-1373,45544,53.0523,0.0004112,15.46118426,425.29505777354643,430.8925019669123,1 45544U 20025P   26044.42854521  .00093147  00000+0  18572-2 0  9996,2 45544  53.0523 205.1131 0004112 247.4751 112.5821 15.46118426321580
STARLINK-1294,45551,53.0314,0.0009245,15.915894,291.6626966371223,304.0065681854503,1 45551U 20025W   26044.58334490  .00373419  63912-4  11281-2 0  9998,2 45551  53.0314  98.6038 0009245  16.0036 275.4447 15.91589400  5884
STARLINK-1327,45555,53.0495,0.000268,15.49276564,417.0195591870706,420.66273947511127,1 45555U 20025AA  26044.36751836  .00100044  00000+0  17857-2 0  9996,2 45555  53.0495 183.6069 0002680 307.9910  52.0855 15.49276564321875
STARLINK-1356,45564,53.0532,0.0003277,15.41976616,438.0418057086281,442.5105937197213,1 45564U 20025AK  26043.92897086  .00060047  00000+0  13867-2 0  9990,2 45564  53.0532 191.4733 0003277 294.2202  65.8460 15.41976616321722
STARLINK-1357,45565,53.0546,0.0001415,15.50635597,413.90794731595906,415.8303680585841,1 45565U 20025AL  26044.51617895  .00116512  00000+0  19769-2 0  9991,2 45565  53.0546 154.5087 0001415 312.8515  47.2374 15.50635597322309
STARLINK-1361,45567,53.0515,0.0003603,15.43225671,434.1412328015904,439.0519298202835,1 45567U 20025AN  26044.58334490  .00067760  00000+0  14980-2 0  9997,2 45567  53.0515 188.7847 0003603 301.3306 145.0840 15.43225671  5855
STARLINK-1363,45568,53.0445,0.0006652,15.70698901,352.41823357329395,361.37852464165826,1 45568U 20025AP  26044.58334490  .00114189  00000+0  89583-3 0  9998,2 45568  53.0445 157.6032 0006652 336.8336 117.0392 15.70698901  5875
STARLINK-1366,45569,53.0453,0.0006254,15.70329726,353.7411638222584,362.1666663388414,1 45569U 20025AQ  26044.58334490  .00113409  00000+0  90375-3 0  9994,2 45569  53.0453 158.2700 0006254 332.4691  88.1524 15.70329726  5970
STARLINK-1376,45570,53.1621,0.0001593,15.29368084,476.60801169233673,478.79228140722626,1 45570U 20025AR  26044.40885671 -.00002654  00000+0 -79623-4 0  9994,2 45570  53.1621 190.4331 0001593 137.7591 222.3532 15.29368084321789
STARLINK-1320,45572,53.0503,0.0007562,15.63603949,372.14833999702205,382.36519753290213,1 45572U 20025AT  26044.43266360  .00131710  00000+0  13730-2 0  9996,2 45572  53.0503 105.0076 0007562 318.9097  41.1347 15.63603949323001
STARLINK-1321,45573,53.05,0.0002079,15.44287062,432.05757136223656,434.8898390934701,1 45573U 20025AU  26044.51922686  .00094760  00000+0  20108-2 0  9996,2 45573  53.0500 173.8047 0002079 272.7555  87.3212 15.44287062321727
STARLINK-1331,45578,53.0543,0.000112,15.44284487,432.71837594173485,434.2441784358243,1 45578U 20025AZ  26044.52624647  .00021609  00000+0  46994-3 0  9992,2 45578  53.0543 180.4309 0001120  70.2918 289.8208 15.44284487321940
STARLINK-1333,45580,53.1598,0.0001268,15.30193592,474.3651951505526,476.10321008753726,1 45580U 20025BB  26043.74311476  .00001553  00000+0  64550-4 0  9996,2 45580  53.1598 193.6775 0001268  99.2581 260.8564 15.30193592321683
STARLINK-1335,45581,53.0569,0.0001406,15.06396167,546.2495998971726,548.1970112150948,1 45581U 20025BC  26043.78339117  .00000616  00000+0  60272-4 0  9999,2 45581  53.0569 188.4283 0001406  83.1360 276.9789 15.06396167321759
STARLINK-1337,45582,53.0542,0.000124,15.5368572,405.1345420225698,406.8170019900281,1 45582U 20025BD  26044.46893368  .00032111  00000+0  49889-3 0  9994,2 45582  53.0542 179.0074 0001240  59.3130 300.8001 15.53685720321944
STARLINK-1347,45586,53.0482,0.0004768,15.49494734,414.96262636785195,421.44361630755884,1 45586U 20025BH  26044.52759638  .00106946  00000+0  18916-2 0  9990,2 45586  53.0482 145.7218 0004768 303.1756  56.8794 15.49494734322411
STARLINK-1364,45589,53.0534,0.0003822,15.45367437,427.6964610619989,432.9008292691642,1 45589U 20025BL  26044.53082171  .00084234  00000+0  17261-2 0  9992,2 45589  53.0534 178.6572 0003822 322.9720  37.1022 15.45367437321959
STARLINK-1365,45590,53.0532,4.41e-05,15.42664578,437.94830053051646,438.5495057671733,1 45590U 20025BM  26044.45686324  .00019954  00000+0  45898-3 0  9990,2 45590  53.0532 208.7362 0000441 164.7109 195.3909 15.42664578321547
STARLINK-1443,45660,53.0547,0.0002479,15.06387046,545.5344566173253,548.9680641168152,1 45660U 20035D   26044.34091250 -.00003823  00000+0 -23793-3 0  9995,2 45660  53.0547 175.9191 0002479 112.2233 247.9019 15.06387046315063
STARLINK-1446,45663,53.025,0.0002059,15.41844105,439.26286652235194,442.07084995117475,1 45663U 20035G   26044.51117115  .00024413  00000+0  57460-3 0  9990,2 45663  53.0250 114.1322 0002059 173.7935 186.3095 15.41844105315943
STARLINK-1448,45665,53.0527,0.0004453,15.47494493,421.0293281394188,427.08736331432374,1 45665U 20035J   26044.46737291  .00093177  00000+0  17716-2 0  9991,2 45665  53.0527 168.9164 0004453 353.3292   6.7655 15.47494493315163
STARLINK-1451,45668,53.053,9.16e-05,15.0880026,539.2311719415366,540.4985498824544,1 45668U 20035M   26044.51232733  .00022914  00000+0  14546-2 0  9990,2 45668  53.0530 175.0956 0000916 205.9710 154.1234 15.08800260315098
